{
    "links": {
        "self": "http://www.neowsapp.com/rest/v1/neo/3731588?api_key=iIulBulltgU6a56xZRHN4H3l9WmuAYTsLGpBGhQ2"
    },
    "id": "3731588",
    "neo_reference_id": "3731588",
    "name": "(2015 UH)",
    "designation": "2015 UH",
    "nasa_jpl_url": "http://ssd.jpl.nasa.gov/sbdb.cgi?sstr=3731588",
    "absolute_magnitude_h": 25.4,
    "estimated_diameter": {
        "kilometers": {
            "estimated_diameter_min": 0.022108281,
            "estimated_diameter_max": 0.0494356193
        },
        "meters": {
            "estimated_diameter_min": 22.1082810359,
            "estimated_diameter_max": 49.435619262
        },
        "miles": {
            "estimated_diameter_min": 0.0137374447,
            "estimated_diameter_max": 0.0307178602
        },
        "feet": {
            "estimated_diameter_min": 72.5337327539,
            "estimated_diameter_max": 162.1903570994
        }
    },
    "is_potentially_hazardous_asteroid": false,
    "close_approach_data": [
        {
            "close_approach_date": "2015-10-29",
            "close_approach_date_full": "2015-Oct-29 17:57",
            "epoch_date_close_approach": 1446141420000,
            "relative_velocity": {
                "kilometers_per_second": "9.8237568285",
                "kilometers_per_hour": "35365.5245825744",
                "miles_per_hour": "21974.7616496558"
            },
            "miss_distance": {
                "astronomical": "0.0242232994",
                "lunar": "9.4228634666",
                "kilometers": "3623753.994612278",
                "miles": "2251696.3197063164"
            },
            "orbiting_body": "Earth"
        }
    ],
    "orbital_data": {
        "orbit_id": "6",
        "orbit_determination_date": "2017-04-06 08:31:10",
        "first_observation_date": "2015-10-16",
        "last_observation_date": "2015-10-24",
        "data_arc_in_days": 8,
        "observations_used": 16,
        "orbit_uncertainty": "8",
        "minimum_orbit_intersection": ".00956195",
        "jupiter_tisserand_invariant": "3.191",
        "epoch_osculation": "2457315.5",
        "eccentricity": ".6183436823443242",
        "semi_major_axis": "2.466997609032019",
        "inclination": "2.07773495168039",
        "ascending_node_longitude": "75.06849895989248",
        "orbital_period": "1415.309819173731",
        "perihelion_distance": ".9415452231285169",
        "perihelion_argument": "348.5097171377324",
        "aphelion_distance": "3.992449994935521",
        "perihelion_time": "2457346.294793308108",
        "mean_anomaly": "352.1669973310925",
        "mean_motion": ".2543612678460542",
        "equinox": "J2000",
        "orbit_class": {
            "orbit_class_type": "APO",
            "orbit_class_description": "Near-Earth asteroid orbits which cross the Earth’s orbit similar to that of 1862 Apollo",
            "orbit_class_range": "a (semi-major axis) > 1.0 AU; q (perihelion) < 1.017 AU"
        }
    },
    "is_sentry_object": false
}